STARLINK-36696          
1 67651U 26022D   26060.08292318  .00123854  00000+0  81924-3 0  9993
2 67651  97.2837  93.6291 0001435  62.4928 297.6483 15.75190241  4195
STARLINK-36699          
1 67652U 26022E   26060.08221860  .00112129  00000+0  74231-3 0  9994
2 67652  97.2840  93.6302 0001401  83.5235 276.6190 15.75205277  4199
STARLINK-36694          
1 67653U 26022F   26060.08010405  .00147667  00000+0  97152-3 0  9998
2 67653  97.2830  93.6326 0001706  85.9625 274.1836 15.75245609  4195
STARLINK-36620          
1 67654U 26022G   26060.07975056  .00160594  00000+0  10565-2 0  9996
2 67654  97.2825  93.6330 0001594  44.4346 315.7047 15.75210486  4191
STARLINK-36720          
1 67655U 26022H   26060.07798355  .00121436  00000+0  80269-3 0  9993
2 67655  97.2837  93.6359 0002448 351.8833   8.2392 15.75211310  4195
STARLINK-36688          
1 67656U 26022J   26060.07727737  .00139721  00000+0  92094-3 0  9995
2 67656  97.2828  93.6350 0001532  37.6955 322.4417 15.75225859  4196
STARLINK-36706          
1 67657U 26022K   26060.07586642  .00054958  00000+0  36551-3 0  9998
2 67657  97.2834  93.6385 0000853  72.5049 287.6309 15.75282105  4198
STARLINK-36701          
1 67658U 26022L   26060.07481108  .00253401  00000+0  16500-2 0  9995
2 67658  97.2840  93.6393 0002214  80.3935 279.7580 15.75187959  4193
STARLINK-36642          
1 67659U 26022M   26060.07375136  .00202541  00000+0  13263-2 0  9991
2 67659  97.2824  93.6408 0001772   0.8709 359.2559 15.75198270  4195
STARLINK-36673          
1 67660U 26022N   26060.07233678  .00155613  00000+0  10241-2 0  9997
2 67660  97.2841  93.6423 0001654  84.9031 275.2423 15.75217064  4193
STARLINK-36674          
1 67661U 26022P   26060.07092676  .00132912  00000+0  87578-3 0  9994
2 67661  97.2828  93.6442 0002396  91.6297 268.5242 15.75251410  4190
STARLINK-36700          
1 67662U 26022Q   26060.06881019  .00155151  00000+0  10194-2 0  9990
2 67662  97.2834  93.6474 0001685 107.9529 252.1920 15.75254905  4196
